     3.00           N                   E                   RINEX VERSION / TYPE
BRD_USR             ESA                 20190108 141559  UTCPGM / RUN BY / DATE
 GAL   5.0750E+01  7.0312E-02 -4.8523E-03  0.0000E+00       IONOSPHERIC CORR
GAUT  0.0000000000E+00 0.000000000E+00 172800 2035 GSTB   0 TIME SYSTEM CORR
GPGA -3.7834979594E-10 1.065814104E-14 172800 2035 GSTB   0 TIME SYSTEM CORR
                                                            END OF HEADER
E36 2019 01 08 12 30 00 7.620839169249E-04-4.433786671143E-12 0.000000000000E+00
     1.070000000000E+02-9.000000000000E+01 2.993338970297E-09 2.401419179194E+00
    -4.312023520470E-06 3.283488331363E-04 2.048909664154E-08 5.440601911545E+03
     2.178000000000E+05 5.960464477539E-08-8.671571204376E-01-4.097819328308E-08
     9.851571343090E-01 3.534375000000E+02-1.607775949522E+00-5.843457689182E-09
    -1.307197307158E-10 2.580000000000E+02 2.035000000000E+03 0.000000000000E+00
     3.120000000000E+00 5.600000000000E+01 9.313225746155E-10 0.000000000000E+00
     2.185000000000E+05 0.000000000000E+00 0.000000000000E+00 0.000000000000E+00
E02 2019 01 08 11 30 00 4.246592288837E-05 1.605826582818E-12 0.000000000000E+00
     1.010000000000E+02 8.809375000000E+01 2.343669051795E-09 1.917359987157E+00
     4.105269908905E-06 2.705961233005E-04 1.181289553642E-05 5.440622484207E+03
     2.142000000000E+05 5.587935447693E-09-2.947364983251E+00-5.029141902924E-08
     9.903091016862E-01 1.041562500000E+02-2.640124527212E-01-5.003422698353E-09
    -4.053740283126E-10 5.210000000000E+02 2.035000000000E+03 0.000000000000E+00
     3.120000000000E+00 0.000000000000E+00-6.286427378654E-09-7.683411240578E-09
     2.185150000000E+05 0.000000000000E+00 0.000000000000E+00 0.000000000000E+00
E18 2019 01 08 11 30 00 5.621857650112E-03-2.849276370398E-11 0.000000000000E+00
     1.010000000000E+02 3.259375000000E+01 3.883376043914E-09 6.112004528722E-01
    -2.626329660416E-07 1.663984087063E-01 3.822147846222E-06 5.289346469879E+03
     2.142000000000E+05 1.233071088791E-06-1.445751604580E+00-6.230548024178E-06
     8.817638732332E-01 2.622500000000E+02 1.439422072998E+00-5.482371219910E-09
     1.360056651819E-09 5.210000000000E+02 2.035000000000E+03 0.000000000000E+00
     3.120000000000E+00 4.550000000000E+02 1.420266926289E-08 1.583248376846E-08
     2.185450000000E+05 0.000000000000E+00 0.000000000000E+00 0.000000000000E+00
E21 2019 01 08 12 30 00-5.134110106155E-04-1.961097950698E-12 0.000000000000E+00
     1.070000000000E+02 7.428125000000E+01 2.442958901901E-09 3.890136604376E-02
     3.367662429810E-06 4.673341754824E-05 1.252442598343E-05 5.440630975723E+03
     2.178000000000E+05-3.539025783539E-08-2.949956950782E+00-7.264316082001E-08
     9.898620031999E-01 8.371875000000E+01-2.775250100878E-01-5.131999482664E-09
    -4.689481049995E-10 5.210000000000E+02 2.035000000000E+03 0.000000000000E+00
     3.120000000000E+00 0.000000000000E+00-2.328306436539E-09-2.793967723846E-09
     2.185450000000E+05 0.000000000000E+00 0.000000000000E+00 0.000000000000E+00
E18 2019 01 08 11 30 00 5.621855612844E-03-2.847855284926E-11 0.000000000000E+00
     1.010000000000E+02 3.259375000000E+01 3.883376043914E-09 6.112004528722E-01
    -2.626329660416E-07 1.663984087063E-01 3.822147846222E-06 5.289346469879E+03
     2.142000000000E+05 1.233071088791E-06-1.445751604580E+00-6.230548024178E-06
     8.817638732332E-01 2.622500000000E+02 1.439422072998E+00-5.482371219910E-09
     1.360056651819E-09 2.580000000000E+02 2.035000000000E+03 0.000000000000E+00
     3.120000000000E+00 5.600000000000E+01 1.420266926289E-08 0.000000000000E+00
     2.185500000000E+05 0.000000000000E+00 0.000000000000E+00 0.000000000000E+00
E21 2019 01 08 12 30 00-5.134110688232E-04-1.961097950698E-12 0.000000000000E+00
     1.070000000000E+02 7.428125000000E+01 2.442958901901E-09 3.890136604376E-02
     3.367662429810E-06 4.673341754824E-05 1.252442598343E-05 5.440630975723E+03
     2.178000000000E+05-3.539025783539E-08-2.949956950782E+00-7.264316082001E-08
     9.898620031999E-01 8.371875000000E+01-2.775250100878E-01-5.131999482664E-09
    -4.689481049995E-10 2.580000000000E+02 2.035000000000E+03 0.000000000000E+00
     3.120000000000E+00 0.000000000000E+00-2.328306436539E-09 0.000000000000E+00
     2.185500000000E+05 0.000000000000E+00 0.000000000000E+00 0.000000000000E+00
E31 2019 01 08 12 30 00 9.379005641676E-04-9.748646334629E-12 0.000000000000E+00
     1.070000000000E+02 5.675000000000E+01 2.318668010401E-09-2.827454069211E-01
     2.728775143623E-06 2.521859714761E-04 1.230090856552E-05 5.440629781723E+03
     2.178000000000E+05-1.247972249985E-07-2.949989423175E+00-3.725290298462E-08
     9.898390514782E-01 9.134375000000E+01-1.525199838627E+00-5.020566269594E-09
    -4.660908431259E-10 2.580000000000E+02 2.035000000000E+03 0.000000000000E+00
     3.120000000000E+00 0.000000000000E+00-2.328306436539E-10 0.000000000000E+00
     2.186500000000E+05 0.000000000000E+00 0.000000000000E+00 0.000000000000E+00
E31 2019 01 08 12 30 00 9.379009134136E-04-9.748646334629E-12 0.000000000000E+00
     1.070000000000E+02 5.675000000000E+01 2.318668010401E-09-2.827454069211E-01
     2.728775143623E-06 2.521859714761E-04 1.230090856552E-05 5.440629781723E+03
     2.178000000000E+05-1.247972249985E-07-2.949989423175E+00-3.725290298462E-08
     9.898390514782E-01 9.134375000000E+01-1.525199838627E+00-5.020566269594E-09
    -4.660908431259E-10 5.210000000000E+02 2.035000000000E+03 0.000000000000E+00
     3.120000000000E+00 0.000000000000E+00-2.328306436539E-10-2.328306436539E-10
     2.186650000000E+05 0.000000000000E+00 0.000000000000E+00 0.000000000000E+00
E21 2019 01 08 12 30 00-5.134110106155E-04-1.961097950698E-12 0.000000000000E+00
     1.070000000000E+02 7.428125000000E+01 2.442958901901E-09 3.890136604376E-02
     3.367662429810E-06 4.673341754824E-05 1.252442598343E-05 5.440630975723E+03
     2.178000000000E+05-3.539025783539E-08-2.949956950782E+00-7.264316082001E-08
     9.898620031999E-01 8.371875000000E+01-2.775250100878E-01-5.131999482664E-09
    -4.689481049995E-10 5.210000000000E+02 2.035000000000E+03 0.000000000000E+00
     3.120000000000E+00 0.000000000000E+00-2.328306436539E-09-2.793967723846E-09
     2.190250000000E+05 0.000000000000E+00 0.000000000000E+00 0.000000000000E+00
E21 2019 01 08 12 30 00-5.134110688232E-04-1.961097950698E-12 0.000000000000E+00
     1.070000000000E+02 7.428125000000E+01 2.442958901901E-09 3.890136604376E-02
     3.367662429810E-06 4.673341754824E-05 1.252442598343E-05 5.440630975723E+03
     2.178000000000E+05-3.539025783539E-08-2.949956950782E+00-7.264316082001E-08
     9.898620031999E-01 8.371875000000E+01-2.775250100878E-01-5.131999482664E-09
    -4.689481049995E-10 2.580000000000E+02 2.035000000000E+03 0.000000000000E+00
     3.120000000000E+00 0.000000000000E+00-2.328306436539E-09 0.000000000000E+00
     2.190500000000E+05 0.000000000000E+00 0.000000000000E+00 0.000000000000E+00
E01 2019 01 08 12 40 00-5.163804744370E-04-8.171241461241E-12 0.000000000000E+00
     1.080000000000E+02 6.443750000000E+01 2.421172280115E-09-1.364880141422E-01
     2.948567271233E-06 1.125305425376E-04 1.252628862858E-05 5.440622768402E+03
     2.184000000000E+05 3.911554813385E-08-2.947351745305E+00 7.823109626770E-08
     9.902990865491E-01 8.640625000000E+01-8.293538002233E-01-5.159143470462E-09
    -5.707380592453E-10 5.210000000000E+02 2.035000000000E+03 0.000000000000E+00
     3.120000000000E+00 0.000000000000E+00-4.423782229424E-09-4.889443516731E-09
     2.190850000000E+05 0.000000000000E+00 0.000000000000E+00 0.000000000000E+00
E05 2019 01 08 12 40 00 1.286038896069E-04-6.522782314278E-12 0.000000000000E+00
     1.080000000000E+02 3.565625000000E+01 3.523718205579E-09-2.826295530256E+00
     1.693144440651E-06 1.344952033833E-04 7.942318916321E-06 5.440616010666E+03
     2.184000000000E+05-3.725290298462E-08 1.243332393213E+00 3.539025783539E-08
     9.523144976185E-01 1.672500000000E+02 1.595335411209E+00-5.655592720995E-09
     5.753811097899E-10 5.210000000000E+02 2.035000000000E+03 0.000000000000E+00
     3.120000000000E+00 0.000000000000E+00-1.396983861923E-09-1.396983861923E-09
     2.190850000000E+05 0.000000000000E+00 0.000000000000E+00 0.000000000000E+00
E07 2019 01 08 12 40 00-1.087369746529E-04-7.091216502886E-12 0.000000000000E+00
     1.080000000000E+02 3.362500000000E+01 3.511574842616E-09 2.698016980814E+00
     1.547858119011E-06 1.387341180816E-04 8.422881364822E-06 5.440610609055E+03
     2.184000000000E+05-5.587935447693E-09 1.243350416364E+00 5.774199962616E-08
     9.523456811802E-01 1.540625000000E+02-3.690343980497E-03-5.574160757598E-09
     6.007393089178E-10 5.210000000000E+02 2.035000000000E+03 0.000000000000E+00
     3.120000000000E+00 0.000000000000E+00 2.328306436539E-10 0.000000000000E+00
     2.190850000000E+05 0.000000000000E+00 0.000000000000E+00 0.000000000000E+00
E09 2019 01 08 12 40 00 6.564389972482E-03-1.129762949859E-11 0.000000000000E+00
     1.080000000000E+02 2.803125000000E+01 3.316923877479E-09-5.338586906602E-01
     1.328065991402E-06 2.446464495733E-04 7.936730980873E-06 5.440617330551E+03
     2.184000000000E+05-2.421438694000E-08 1.234716509390E+00-5.029141902924E-08
     9.583194164560E-01 1.700625000000E+02 8.656799155004E-02-5.519872782000E-09
     5.689522705744E-10 5.210000000000E+02 2.035000000000E+03 0.000000000000E+00
     3.120000000000E+00 0.000000000000E+00-3.259629011154E-09-3.958120942116E-09
     2.190850000000E+05 0.000000000000E+00 0.000000000000E+00 0.000000000000E+00
